TEVEL2-8                
1 63239U 25052AF  26068.66815442  .00019130  00000+0  69304-3 0  9993
2 63239  97.4055 324.2923 0008031 124.9191 235.2804 15.28392908 54807
STARLINK-36542          
1 67445U 26008A   26068.39299931  .00031588  00000+0  11507-2 0  9999
2 67445  42.9989 207.1817 0001334 182.2029 177.8817 15.27630907  9525
